[Satellite]
VERSION=1.1
NAME=RS-30
NICKNAME=RS-30
TLE1=1 32953U 08025A   22342.62313728  .00000024  00000+0  10000-3 0  9991
TLE2=2 32953  82.5041  75.6217 0018833 237.9732 121.9514 12.43115865659973
STATUS=0
